COMMENT,ORIGINATOR,NORAD_CAT_ID,OBJECT_NAME,OBJECT_TYPE,CLASSIFICATION_TYPE,INTLDES,EPOCH,EPOCH_MICROSECONDS,MEAN_MOTION,ECCENTRICITY,INCLINATION,RA_OF_ASC_NODE,ARG_OF_PERICENTER,MEAN_ANOMALY,EPHEMERIS_TYPE,ELEMENT_SET_NO,REV_AT_EPOCH,BSTAR,MEAN_MOTION_DOT,MEAN_MOTION_DDOT,FILE,TLE_LINE0,TLE_LINE1,TLE_LINE2,OBJECT_ID,OBJECT_NUMBER,SEMIMAJOR_AXIS,PERIOD,APOGEE,PERIGEE,DECAYED
"GENERATED VIA SPACETRACK.ORG API","18 SPCS","55097","SPACEBEE-160","PAYLOAD","U","23001CS","2024-05-05 22:07:45","84576","15.42855738","0.0008214","97.4231","192.4587","286.5805","73.454","0","999","7456","0.0012556","0.00055363","0","4308260","0 SPACEBEE-160","1 55097U 23001CS  24126.92204959  .00055363  00000-0  12556-2 0  9990","2 55097  97.4231 192.4587 0008214 286.5805  73.4540 15.42855738 74562","2023-001CS","55097","6815.823","93.333","443.286","432.089","0"
"GENERATED VIA SPACETRACK.ORG API","18 SPCS","55097","SPACEBEE-160","PAYLOAD","U","23001CS","2024-05-06 04:21:19","413216","15.42894288","0.0008248","97.4232","192.7229","285.4684","74.5653","0","999","7460","0.0014915","0.00065956","0","4308548","0 SPACEBEE-160","1 55097U 23001CS  24127.18147469  .00065956  00000-0  14915-2 0  9991","2 55097  97.4232 192.7229 0008248 285.4684  74.5653 15.42894288 74604","2023-001CS","55097","6815.709","93.331","443.196","431.953","0"
"GENERATED VIA SPACETRACK.ORG API","18 SPCS","55097","SPACEBEE-160","PAYLOAD","U","23001CS","2024-05-06 04:21:19","413216","15.42894288","0.0008248","97.4232","192.7229","285.4684","74.5653","0","999","7460","0.0014915","0.00065956","0","4309203","0 SPACEBEE-160","1 55097U 23001CS  24127.18147469  .00065956  00000-0  14915-2 0  9991","2 55097  97.4232 192.7229 0008248 285.4684  74.5653 15.42894288 74604","2023-001CS","55097","6815.709","93.331","443.196","431.953","0"
"GENERATED VIA SPACETRACK.ORG API","18 SPCS","55097","SPACEBEE-160","PAYLOAD","U","23001CS","2024-05-06 16:48:26","776224","15.42953367","0.0008256","97.4229","193.2516","283.3496","76.6831","0","999","7468","0.0014859","0.00065838","0","4309210","0 SPACEBEE-160","1 55097U 23001CS  24127.70030991  .00065838  00000-0  14859-2 0  9996","2 55097  97.4229 193.2516 0008256 283.3496  76.6831 15.42953367 74685","2023-001CS","55097","6815.535","93.328","443.027","431.773","0"
"GENERATED VIA SPACETRACK.ORG API","18 SPCS","55097","SPACEBEE-160","PAYLOAD","U","23001CS","2024-05-07 03:42:09","114624","15.43016651","0.0008303","97.423","193.7136","280.6443","79.3869","0","999","7475","0.0018478","0.00082241","0","4309871","0 SPACEBEE-160","1 55097U 23001CS  24128.15427216  .00082241  00000-0  18478-2 0  9994","2 55097  97.4230 193.7136 0008303 280.6443  79.3869 15.43016651 74751","2023-001CS","55097","6815.349","93.324","442.873","431.555","0"
"GENERATED VIA SPACETRACK.ORG API","18 SPCS","55097","SPACEBEE-160","PAYLOAD","U","23001CS","2024-05-07 16:09:12","916224","15.43069337","0.0008385","97.4228","194.2427","279.0474","80.9824","0","999","7483","0.0012463","0.0005535","0","4310180","0 SPACEBEE-160","1 55097U 23001CS  24128.67306616  .00055350  00000-0  12463-2 0  9990","2 55097  97.4228 194.2427 0008385 279.0474  80.9824 15.43069337 74830","2023-001CS","55097","6815.194","93.320","442.773","431.344","0"
"GENERATED VIA SPACETRACK.ORG API","18 SPCS","55097","SPACEBEE-160","PAYLOAD","U","23001CS","2024-05-07 16:09:12","916224","15.43069337","0.0008385","97.4228","194.2427","279.0474","80.9824","0","999","7483","0.0012463","0.0005535","0","4310193","0 SPACEBEE-160","1 55097U 23001CS  24128.67306616  .00055350  00000-0  12463-2 0  9990","2 55097  97.4228 194.2427 0008385 279.0474  80.9824 15.43069337 74830","2023-001CS","55097","6815.194","93.320","442.773","431.344","0"
"GENERATED VIA SPACETRACK.ORG API","18 SPCS","55097","SPACEBEE-160","PAYLOAD","U","23001CS","2024-05-08 10:49:45","450336","15.43158642","0.0008361","97.4225","195.0362","275.888","84.1414","0","999","7495","0.0014015","0.00062497","0","4310854","0 SPACEBEE-160","1 55097U 23001CS  24129.45122049  .00062497  00000-0  14015-2 0  9998","2 55097  97.4225 195.0362 0008361 275.8880  84.1414 15.43158642 74955","2023-001CS","55097","6814.931","93.315","442.494","431.098","0"
"GENERATED VIA SPACETRACK.ORG API","18 SPCS","55097","SPACEBEE-160","PAYLOAD","U","23001CS","2024-05-08 20:10:00","146208","15.43211051","0.0008471","97.4224","195.4323","274.5013","85.5267","0","999","7501","0.0014127","0.00063115","0","4311142","0 SPACEBEE-160","1 55097U 23001CS  24129.84027947  .00063115  00000-0  14127-2 0  9994","2 55097  97.4224 195.4323 0008471 274.5013  85.5267 15.43211051 75014","2023-001CS","55097","6814.777","93.312","442.414","430.869","0"
"GENERATED VIA SPACETRACK.ORG API","18 SPCS","55097","SPACEBEE-160","PAYLOAD","U","23001CS","2024-05-08 21:43:22","488096","15.43219031","0.0008474","97.4225","195.4986","273.9973","86.0306","0","999","7502","0.0014397","0.0006435","0","4311154","0 SPACEBEE-160","1 55097U 23001CS  24129.90512139  .00064350  00000-0  14397-2 0  9994","2 55097  97.4225 195.4986 0008474 273.9973  86.0306 15.43219031 75028","2023-001CS","55097","6814.753","93.311","442.393","430.843","0"
"GENERATED VIA SPACETRACK.ORG API","18 SPCS","55097","SPACEBEE-160","PAYLOAD","U","23001CS","2024-05-09 11:43:42","204288","15.43295797","0.0008552","97.4222","196.0939","271.9733","88.0535","0","999","7511","0.0015669","0.00070279","0","4311785","0 SPACEBEE-160","1 55097U 23001CS  24130.48868292  .00070279  00000-0  15669-2 0  9993","2 55097  97.4222 196.0939 0008552 271.9733  88.0535 15.43295797 75118","2023-001CS","55097","6814.527","93.307","442.220","430.564","0"
"GENERATED VIA SPACETRACK.ORG API","18 SPCS","55097","SPACEBEE-160","PAYLOAD","U","23001CS","2024-05-09 17:57:10","155744","15.43334035","0.0008618","97.422","196.3583","271.0957","88.9303","0","999","7515","0.0016547","0.00074357","0","4312075","0 SPACEBEE-160","1 55097U 23001CS  24130.74803421  .00074357  00000-0  16547-2 0  9992","2 55097  97.4220 196.3583 0008618 271.0957  88.9303 15.43334035 75151","2023-001CS","55097","6814.415","93.304","442.152","430.407","0"
"GENERATED VIA SPACETRACK.ORG API","18 SPCS","55097","SPACEBEE-160","PAYLOAD","U","23001CS","2024-05-10 03:17:21","123456","15.43393663","0.0008653","97.4219","196.7547","269.2155","90.8102","0","999","7521","0.0020925","0.00094486","0","4312386","0 SPACEBEE-160","1 55097U 23001CS  24131.13705004  .00094486  00000-0  20925-2 0  9994","2 55097  97.4219 196.7547 0008653 269.2155  90.8102 15.43393663 75219","2023-001CS","55097","6814.239","93.301","442.000","430.208","0"
"GENERATED VIA SPACETRACK.ORG API","18 SPCS","55097","SPACEBEE-160","PAYLOAD","U","23001CS","2024-05-10 03:17:21","123456","15.43393663","0.0008653","97.4219","196.7547","269.2155","90.8102","0","999","7521","0.0020925","0.00094486","0","4312738","0 SPACEBEE-160","1 55097U 23001CS  24131.13705004  .00094486  00000-0  20925-2 0  9994","2 55097  97.4219 196.7547 0008653 269.2155  90.8102 15.43393663 75219","2023-001CS","55097","6814.239","93.301","442.000","430.208","0"
"GENERATED VIA SPACETRACK.ORG API","18 SPCS","55097","SPACEBEE-160","PAYLOAD","U","23001CS","2024-05-10 18:50:56","548608","15.43490922","0.0008697","97.4218","197.416","267.2485","92.7767","0","999","7531","0.0019497","0.00088251","0","4313039","0 SPACEBEE-160","1 55097U 23001CS  24131.78537672  .00088251  00000-0  19497-2 0  9994","2 55097  97.4218 197.4160 0008697 267.2485  92.7767 15.43490922 75314","2023-001CS","55097","6813.953","93.295","441.744","429.892","0"
"GENERATED VIA SPACETRACK.ORG API","18 SPCS","55097","SPACEBEE-160","PAYLOAD","U","23001CS","2024-05-10 18:50:56","548608","15.43490922","0.0008697","97.4218","197.416","267.2485","92.7767","0","999","7531","0.0019497","0.00088251","0","4313042","0 SPACEBEE-160","1 55097U 23001CS  24131.78537672  .00088251  00000-0  19497-2 0  9994","2 55097  97.4218 197.4160 0008697 267.2485  92.7767 15.43490922 75314","2023-001CS","55097","6813.953","93.295","441.744","429.892","0"
"GENERATED VIA SPACETRACK.ORG API","18 SPCS","55097","SPACEBEE-160","PAYLOAD","U","23001CS","2024-05-11 02:37:42","133152","15.43582427","0.0008695","97.4217","197.7463","265.5867","94.4388","0","999","7536","0.0019595","0.00088976","0","4313351","0 SPACEBEE-160","1 55097U 23001CS  24132.10951543  .00088976  00000-0  19595-2 0  9991","2 55097  97.4217 197.7463 0008695 265.5867  94.4388 15.43582427 75360","2023-001CS","55097","6813.684","93.289","441.473","429.624","0"
"GENERATED VIA SPACETRACK.ORG API","18 SPCS","55097","SPACEBEE-160","PAYLOAD","U","23001CS","2024-05-11 02:37:42","133152","15.43582427","0.0008695","97.4217","197.7463","265.5867","94.4388","0","999","7536","0.0019595","0.00088976","0","4314338","0 SPACEBEE-160","1 55097U 23001CS  24132.10951543  .00088976  00000-0  19595-2 0  9991","2 55097  97.4217 197.7463 0008695 265.5867  94.4388 15.43582427 75360","2023-001CS","55097","6813.684","93.289","441.473","429.624","0"
"GENERATED VIA SPACETRACK.ORG API","18 SPCS","55097","SPACEBEE-160","PAYLOAD","U","23001CS","2024-05-12 03:31:01","915680","15.44038843","0.0008865","97.4214","198.8044","261.5193","98.505","0","999","7552","0.0024593","0.00113788","0","4314755","0 SPACEBEE-160","1 55097U 23001CS  24133.14654995  .00113788  00000-0  24593-2 0  9991","2 55097  97.4214 198.8044 0008865 261.5193  98.5050 15.44038843 75529","2023-001CS","55097","6812.341","93.262","440.245","428.167","0"
"GENERATED VIA SPACETRACK.ORG API","18 SPCS","55097","SPACEBEE-160","PAYLOAD","U","23001CS","2024-05-12 03:31:01","915680","15.44038843","0.0008865","97.4214","198.8044","261.5193","98.505","0","999","7552","0.0024593","0.00113788","0","4315151","0 SPACEBEE-160","1 55097U 23001CS  24133.14654995  .00113788  00000-0  24593-2 0  9991","2 55097  97.4214 198.8044 0008865 261.5193  98.5050 15.44038843 75529","2023-001CS","55097","6812.341","93.262","440.245","428.167","0"
